ASTROCAST 0.1           
1 43798U 18099AS  26186.20694103  .00061357  00000+0  10555-2 0  9995
2 43798  97.4364 265.2804 0005576 154.7439 205.4086 15.50888655417221
ASTROCAST-0402          
1 55109U 23001DE  26186.23997941  .00013298  00000+0  47628-3 0  9995
2 55109  97.5579 279.7122 0005704 162.2041 197.9399 15.28869926147292
ASTROCAST-0401          
1 55110U 23001DF  26186.25227643  .00020750  00000+0  75229-3 0  9993
2 55110  97.5559 279.5399 0009361 137.6682 222.5281 15.28343306193965
ASTROCAST-0403          
1 55111U 23001DG  26186.22800870  .00026881  00000+0  86918-3 0  9998
2 55111  97.5620 280.7700 0003964 252.9605 107.1202 15.32043413147325
ASTROCAST-0404          
1 55112U 23001DH  26186.20706923  .00013001  00000+0  46797-3 0  9992
2 55112  97.5666 280.6025 0004872 290.5222  69.5495 15.28716325147281
