{"fetched_at":"2026-07-06T08:46:50.552Z","source":"https://celestrak.org/NORAD/elements/gp.php?NAME=ASTROCAST&FORMAT=JSON","constellation":"astrocast","records":[{"OBJECT_NAME":"ASTROCAST 0.1","OBJECT_ID":"2018-099AS","EPOCH":"2026-07-05T04:57:59.704128","CLASSIFICATION_TYPE":"U","MEAN_MOTION":15.50888655,"ECCENTRICITY":0.0005576,"INCLINATION":97.4364,"RA_OF_ASC_NODE":265.2804,"ARG_OF_PERICENTER":154.7439,"MEAN_ANOMALY":205.4086,"EPHEMERIS_TYPE":0,"NORAD_CAT_ID":43798,"ELEMENT_SET_NO":999,"REV_AT_EPOCH":41722,"BSTAR":0.0010555,"MEAN_MOTION_DOT":0.00061357,"MEAN_MOTION_DDOT":0},{"OBJECT_NAME":"ASTROCAST-0402","OBJECT_ID":"2023-001DE","EPOCH":"2026-07-05T05:45:34.221024","CLASSIFICATION_TYPE":"U","MEAN_MOTION":15.28869926,"ECCENTRICITY":0.0005705,"INCLINATION":97.5579,"RA_OF_ASC_NODE":279.7122,"ARG_OF_PERICENTER":162.2041,"MEAN_ANOMALY":197.9399,"EPHEMERIS_TYPE":0,"NORAD_CAT_ID":55109,"ELEMENT_SET_NO":999,"REV_AT_EPOCH":14729,"BSTAR":0.00047628,"MEAN_MOTION_DOT":0.00013298,"MEAN_MOTION_DDOT":0},{"OBJECT_NAME":"ASTROCAST-0401","OBJECT_ID":"2023-001DF","EPOCH":"2026-07-05T06:03:16.682688","CLASSIFICATION_TYPE":"U","MEAN_MOTION":15.28343306,"ECCENTRICITY":0.0009361,"INCLINATION":97.5559,"RA_OF_ASC_NODE":279.5399,"ARG_OF_PERICENTER":137.6682,"MEAN_ANOMALY":222.5281,"EPHEMERIS_TYPE":0,"NORAD_CAT_ID":55110,"ELEMENT_SET_NO":999,"REV_AT_EPOCH":19396,"BSTAR":0.00075229,"MEAN_MOTION_DOT":0.0002075,"MEAN_MOTION_DDOT":0},{"OBJECT_NAME":"ASTROCAST-0403","OBJECT_ID":"2023-001DG","EPOCH":"2026-07-05T05:28:19.950816","CLASSIFICATION_TYPE":"U","MEAN_MOTION":15.32043413,"ECCENTRICITY":0.0003964,"INCLINATION":97.562,"RA_OF_ASC_NODE":280.77,"ARG_OF_PERICENTER":252.9605,"MEAN_ANOMALY":107.1202,"EPHEMERIS_TYPE":0,"NORAD_CAT_ID":55111,"ELEMENT_SET_NO":999,"REV_AT_EPOCH":14732,"BSTAR":0.00086918,"MEAN_MOTION_DOT":0.00026881,"MEAN_MOTION_DDOT":0},{"OBJECT_NAME":"ASTROCAST-0404","OBJECT_ID":"2023-001DH","EPOCH":"2026-07-05T04:58:10.780608","CLASSIFICATION_TYPE":"U","MEAN_MOTION":15.28716325,"ECCENTRICITY":0.0004872,"INCLINATION":97.5666,"RA_OF_ASC_NODE":280.6025,"ARG_OF_PERICENTER":290.5222,"MEAN_ANOMALY":69.5495,"EPHEMERIS_TYPE":0,"NORAD_CAT_ID":55112,"ELEMENT_SET_NO":999,"REV_AT_EPOCH":14728,"BSTAR":0.00046797,"MEAN_MOTION_DOT":0.00013001,"MEAN_MOTION_DDOT":0}]}
